SALSAT                  
1 46495U 20068K   26117.24379231  .00009696  00000+0  34616-3 0  9994
2 46495  97.8862 117.2385 0011569 117.3130 242.9288 15.29030388307571
XW-3 (CAS-9)            
1 50466U 21131B   26117.30827324  .00000458  00000+0  15541-3 0  9990
2 50466  98.4947 209.9814 0003000 242.4853 117.6031 14.41306547227788
GREENCUBE (IO-117)      
1 53109U 22080E   26116.97992185 -.00000003  00000+0  00000+0 0  9998
2 53109  70.1458 316.0629 0008819 301.5581  58.4217  6.42583360 88775
UMKA 1 (RS40S)          
1 57172U 23091G   26117.28914791  .00007444  00000+0  34585-3 0  9991
2 57172  97.5095 176.1945 0011246 300.0589  59.9530 15.20236954156270
CUBESX-HSE 3 (RS42S)    
1 57178U 23091N   26117.24416768  .00016215  00000+0  56093-3 0  9998
2 57178  97.5128 182.2310 0009353 270.7797  89.2371 15.29931535156632
MONITOR-3 (RS58S)       
1 57180U 23091Q   26117.29180126  .00012161  00000+0  46329-3 0  9999
2 57180  97.5121 180.3959 0010189 278.9254  81.0831 15.26819244156521
MONITOR-4 (RS57S)       
1 57182U 23091S   26117.27403732  .00012610  00000+0  47891-3 0  9994
2 57182  97.5116 180.3461 0010194 279.4472  80.5614 15.26914138156520
MONITOR-2 (RS39S)       
1 57184U 23091U   26117.24843110  .00006237  00000+0  30594-3 0  9991
2 57184  97.5116 175.8682 0009682 292.5302  67.4907 15.18434390156228
SVYATOBOR 1 (RS60S)     
1 57187U 23091X   26117.24572957  .00011558  00000+0  45523-3 0  9992
2 57187  97.5129 180.8067 0007901 269.8387  90.1945 15.25742749156548
VIZARD-METEO (RS38S)    
1 57189U 23091Z   26117.24136677  .00019627  00000+0  59027-3 0  9998
2 57189  97.5122 185.7640 0006233 243.2038 116.8567 15.34408946156870
POLYTECH-UNIVERSE 3 (R*)
1 57191U 23091AB  26117.28228403  .00005712  00000+0  27852-3 0  9995
2 57191  97.5092 175.4071 0014203 310.1617  49.8373 15.18632348156222
UTMN 2 (RS27S)          
1 57203U 23091AP  26117.29021496  .00015211  00000+0  51289-3 0  9999
2 57203  97.5121 183.8483 0006759 253.5089 106.5409 15.30798373156753
KUZGTU 1 (RS47S)        
1 57217U 23091AV  26117.25766727  .00015228  00000+0  54731-3 0  9996
2 57217  97.5102 181.2571 0009518 275.2364  84.7789 15.28694879156593
SONATE-2                
1 59112U 24043Q   26116.65347064  .00042787  00000+0  63582-3 0  9996
2 59112  97.5475 264.0588 0006702  38.2051 321.9677 15.55040245119876
MESAT1                  
1 60209U 24125G   26117.12787309  .00059188  00000+0  78140-3 0  9998
2 60209  97.2377 333.6281 0011618  54.0637 306.1695 15.58115280101606
OOV-CUBE (TUBSAT-30)    
1 60240U 24128F   26117.21517684  .00002949  00000+0  23072-3 0  9990
2 60240  61.9961  43.2739 0050431 122.5712 238.0264 15.02514360 98455
