[{"OBJECT_NAME":"SALSAT","OBJECT_ID":"2020-068K","EPOCH":"2026-04-27T05:51:03.655584","MEAN_MOTION":15.29030388,"ECCENTRICITY":0.00115696,"INCLINATION":97.8862,"RA_OF_ASC_NODE":117.2385,"ARG_OF_PERICENTER":117.313,"MEAN_ANOMALY":242.9288,"EPHEMERIS_TYPE":0,"CLASSIFICATION_TYPE":"U","NORAD_CAT_ID":46495,"ELEMENT_SET_NO":999,"REV_AT_EPOCH":30757,"BSTAR":0.00034615871,"MEAN_MOTION_DOT":9.696e-5,"MEAN_MOTION_DDOT":0},{"OBJECT_NAME":"XW-3 (CAS-9)","OBJECT_ID":"2021-131B","EPOCH":"2026-04-27T07:23:54.807936","MEAN_MOTION":14.41306547,"ECCENTRICITY":0.00030008,"INCLINATION":98.4947,"RA_OF_ASC_NODE":209.9814,"ARG_OF_PERICENTER":242.4853,"MEAN_ANOMALY":117.6031,"EPHEMERIS_TYPE":0,"CLASSIFICATION_TYPE":"U","NORAD_CAT_ID":50466,"ELEMENT_SET_NO":999,"REV_AT_EPOCH":22778,"BSTAR":0.00015540698,"MEAN_MOTION_DOT":4.58e-6,"MEAN_MOTION_DDOT":0},{"OBJECT_NAME":"GREENCUBE (IO-117)","OBJECT_ID":"2022-080E","EPOCH":"2026-04-26T23:31:05.247840","MEAN_MOTION":6.4258336,"ECCENTRICITY":0.00088196,"INCLINATION":70.1458,"RA_OF_ASC_NODE":316.0629,"ARG_OF_PERICENTER":301.5581,"MEAN_ANOMALY":58.4217,"EPHEMERIS_TYPE":0,"CLASSIFICATION_TYPE":"U","NORAD_CAT_ID":53109,"ELEMENT_SET_NO":999,"REV_AT_EPOCH":8877,"BSTAR":0,"MEAN_MOTION_DOT":-3.0e-8,"MEAN_MOTION_DDOT":0},{"OBJECT_NAME":"UMKA 1 (RS40S)","OBJECT_ID":"2023-091G","EPOCH":"2026-04-27T06:56:22.379424","MEAN_MOTION":15.20236954,"ECCENTRICITY":0.00112462,"INCLINATION":97.5095,"RA_OF_ASC_NODE":176.1945,"ARG_OF_PERICENTER":300.0589,"MEAN_ANOMALY":59.953,"EPHEMERIS_TYPE":0,"CLASSIFICATION_TYPE":"U","NORAD_CAT_ID":57172,"ELEMENT_SET_NO":999,"REV_AT_EPOCH":15627,"BSTAR":0.00034584983,"MEAN_MOTION_DOT":7.444e-5,"MEAN_MOTION_DDOT":0},{"OBJECT_NAME":"CUBESX-HSE 3 (RS42S)","OBJECT_ID":"2023-091N","EPOCH":"2026-04-27T05:51:36.087552","MEAN_MOTION":15.29931535,"ECCENTRICITY":0.00093532,"INCLINATION":97.5128,"RA_OF_ASC_NODE":182.231,"ARG_OF_PERICENTER":270.7797,"MEAN_ANOMALY":89.2371,"EPHEMERIS_TYPE":0,"CLASSIFICATION_TYPE":"U","NORAD_CAT_ID":57178,"ELEMENT_SET_NO":999,"REV_AT_EPOCH":15663,"BSTAR":0.00056093456,"MEAN_MOTION_DOT":0.00016215,"MEAN_MOTION_DDOT":0},{"OBJECT_NAME":"MONITOR-3 (RS58S)","OBJECT_ID":"2023-091Q","EPOCH":"2026-04-27T07:00:11.628864","MEAN_MOTION":15.26819244,"ECCENTRICITY":0.00101895,"INCLINATION":97.5121,"RA_OF_ASC_NODE":180.3959,"ARG_OF_PERICENTER":278.9254,"MEAN_ANOMALY":81.0831,"EPHEMERIS_TYPE":0,"CLASSIFICATION_TYPE":"U","NORAD_CAT_ID":57180,"ELEMENT_SET_NO":999,"REV_AT_EPOCH":15652,"BSTAR":0.0004632946,"MEAN_MOTION_DOT":0.00012161,"MEAN_MOTION_DDOT":0},{"OBJECT_NAME":"MONITOR-4 (RS57S)","OBJECT_ID":"2023-091S","EPOCH":"2026-04-27T06:34:36.824448","MEAN_MOTION":15.26914138,"ECCENTRICITY":0.00101942,"INCLINATION":97.5116,"RA_OF_ASC_NODE":180.3461,"ARG_OF_PERICENTER":279.4472,"MEAN_ANOMALY":80.5614,"EPHEMERIS_TYPE":0,"CLASSIFICATION_TYPE":"U","NORAD_CAT_ID":57182,"ELEMENT_SET_NO":999,"REV_AT_EPOCH":15652,"BSTAR":0.00047891416,"MEAN_MOTION_DOT":0.0001261,"MEAN_MOTION_DDOT":0},{"OBJECT_NAME":"MONITOR-2 (RS39S)","OBJECT_ID":"2023-091U","EPOCH":"2026-04-27T05:57:44.447040","MEAN_MOTION":15.1843439,"ECCENTRICITY":0.00096827,"INCLINATION":97.5116,"RA_OF_ASC_NODE":175.8682,"ARG_OF_PERICENTER":292.5302,"MEAN_ANOMALY":67.4907,"EPHEMERIS_TYPE":0,"CLASSIFICATION_TYPE":"U","NORAD_CAT_ID":57184,"ELEMENT_SET_NO":999,"REV_AT_EPOCH":15622,"BSTAR":0.0003059358,"MEAN_MOTION_DOT":6.237e-5,"MEAN_MOTION_DDOT":0},{"OBJECT_NAME":"SVYATOBOR 1 (RS60S)","OBJECT_ID":"2023-091X","EPOCH":"2026-04-27T05:53:51.034848","MEAN_MOTION":15.25742749,"ECCENTRICITY":0.0007901,"INCLINATION":97.5129,"RA_OF_ASC_NODE":180.8067,"ARG_OF_PERICENTER":269.8387,"MEAN_ANOMALY":90.1945,"EPHEMERIS_TYPE":0,"CLASSIFICATION_TYPE":"U","NORAD_CAT_ID":57187,"ELEMENT_SET_NO":999,"REV_AT_EPOCH":15654,"BSTAR":0.00045522891,"MEAN_MOTION_DOT":0.00011558,"MEAN_MOTION_DDOT":0},{"OBJECT_NAME":"VIZARD-METEO (RS38S)","OBJECT_ID":"2023-091Z","EPOCH":"2026-04-27T05:47:34.088928","MEAN_MOTION":15.34408946,"ECCENTRICITY":0.00062336,"INCLINATION":97.5122,"RA_OF_ASC_NODE":185.764,"ARG_OF_PERICENTER":243.2038,"MEAN_ANOMALY":116.8567,"EPHEMERIS_TYPE":0,"CLASSIFICATION_TYPE":"U","NORAD_CAT_ID":57189,"ELEMENT_SET_NO":999,"REV_AT_EPOCH":15687,"BSTAR":0.00059027278,"MEAN_MOTION_DOT":0.00019627,"MEAN_MOTION_DDOT":0},{"OBJECT_NAME":"POLYTECH-UNIVERSE 3 (RS46S)","OBJECT_ID":"2023-091AB","EPOCH":"2026-04-27T06:46:29.340192","MEAN_MOTION":15.18632348,"ECCENTRICITY":0.00142034,"INCLINATION":97.5092,"RA_OF_ASC_NODE":175.4071,"ARG_OF_PERICENTER":310.1617,"MEAN_ANOMALY":49.8373,"EPHEMERIS_TYPE":0,"CLASSIFICATION_TYPE":"U","NORAD_CAT_ID":57191,"ELEMENT_SET_NO":999,"REV_AT_EPOCH":15622,"BSTAR":0.00027852227,"MEAN_MOTION_DOT":5.712e-5,"MEAN_MOTION_DDOT":0},{"OBJECT_NAME":"UTMN 2 (RS27S)","OBJECT_ID":"2023-091AP","EPOCH":"2026-04-27T06:57:54.572544","MEAN_MOTION":15.30798373,"ECCENTRICITY":0.00067599,"INCLINATION":97.5121,"RA_OF_ASC_NODE":183.8483,"ARG_OF_PERICENTER":253.5089,"MEAN_ANOMALY":106.5409,"EPHEMERIS_TYPE":0,"CLASSIFICATION_TYPE":"U","NORAD_CAT_ID":57203,"ELEMENT_SET_NO":999,"REV_AT_EPOCH":15675,"BSTAR":0.00051289046,"MEAN_MOTION_DOT":0.00015211,"MEAN_MOTION_DDOT":0},{"OBJECT_NAME":"KUZGTU 1 (RS47S)","OBJECT_ID":"2023-091AV","EPOCH":"2026-04-27T06:11:02.452128","MEAN_MOTION":15.28694879,"ECCENTRICITY":0.00095189,"INCLINATION":97.5102,"RA_OF_ASC_NODE":181.2571,"ARG_OF_PERICENTER":275.2364,"MEAN_ANOMALY":84.7789,"EPHEMERIS_TYPE":0,"CLASSIFICATION_TYPE":"U","NORAD_CAT_ID":57217,"ELEMENT_SET_NO":999,"REV_AT_EPOCH":15659,"BSTAR":0.00054731332,"MEAN_MOTION_DOT":0.00015228,"MEAN_MOTION_DDOT":0},{"OBJECT_NAME":"SONATE-2","OBJECT_ID":"2024-043Q","EPOCH":"2026-04-26T15:40:59.863296","MEAN_MOTION":15.55040245,"ECCENTRICITY":0.00067028,"INCLINATION":97.5475,"RA_OF_ASC_NODE":264.0588,"ARG_OF_PERICENTER":38.2051,"MEAN_ANOMALY":321.9677,"EPHEMERIS_TYPE":0,"CLASSIFICATION_TYPE":"U","NORAD_CAT_ID":59112,"ELEMENT_SET_NO":999,"REV_AT_EPOCH":11987,"BSTAR":0.00063581855,"MEAN_MOTION_DOT":0.00042787,"MEAN_MOTION_DDOT":0},{"OBJECT_NAME":"MESAT1","OBJECT_ID":"2024-125G","EPOCH":"2026-04-27T03:04:08.234976","MEAN_MOTION":15.5811528,"ECCENTRICITY":0.00116184,"INCLINATION":97.2377,"RA_OF_ASC_NODE":333.6281,"ARG_OF_PERICENTER":54.0637,"MEAN_ANOMALY":306.1695,"EPHEMERIS_TYPE":0,"CLASSIFICATION_TYPE":"U","NORAD_CAT_ID":60209,"ELEMENT_SET_NO":999,"REV_AT_EPOCH":10160,"BSTAR":0.00078139733,"MEAN_MOTION_DOT":0.00059188,"MEAN_MOTION_DDOT":0},{"OBJECT_NAME":"OOV-CUBE (TUBSAT-30)","OBJECT_ID":"2024-128F","EPOCH":"2026-04-27T05:09:51.278976","MEAN_MOTION":15.0251436,"ECCENTRICITY":0.00504311,"INCLINATION":61.9961,"RA_OF_ASC_NODE":43.2739,"ARG_OF_PERICENTER":122.5712,"MEAN_ANOMALY":238.0264,"EPHEMERIS_TYPE":0,"CLASSIFICATION_TYPE":"U","NORAD_CAT_ID":60240,"ELEMENT_SET_NO":999,"REV_AT_EPOCH":9845,"BSTAR":0.00023071907,"MEAN_MOTION_DOT":2.949e-5,"MEAN_MOTION_DDOT":0}]
